{"type": "FeatureCollection", "features": [ {"type": "Feature", "properties": {"norad_id": 30283, "name": "FENGYUN 1C DEB", "group": "fengyun-1c-debris", "lat": -35.67620082205944, "lon": -2.318015534408036, "alt_km": 803.0164769172907, "timestamp": "2025-12-23T20:42:37.351072+00:00", "meta": {"OBJECT_NAME": "FENGYUN 1C DEB", "OBJECT_ID": "1999-025YU", "EPOCH": "2025-12-23T05:45:49.107744", "MEAN_MOTION": 14.01977838, "ECCENTRICITY": 0.01842601, "INCLINATION": 98.867, "RA_OF_ASC_NODE": 350.6412, "ARG_OF_PERICENTER": 14.1164, "MEAN_ANOMALY": 49.8597, "EPHEMERIS_TYPE": 0, "CLASSIFICATION_TYPE": "U", "NORAD_CAT_ID": 30283, "ELEMENT_SET_NO": 999, "REV_AT_EPOCH": 96838, "BSTAR": 7.6842962e-05, "MEAN_MOTION_DOT": 9.3e-07, "MEAN_MOTION_DDOT": 0}, "tle": {"line1": "1 30283U 99025YU  25357.24015171  .00000093  00000+0  76843-4 0  9997", "line2": "2 30283  98.8670 350.6412 0184260  14.1164  49.8597 14.01977838968389"}}, "geometry": {"type": "Point", "coordinates": [-2.318015534408036, -35.67620082205944]}}, {"type": "Feature", "properties": {"norad_id": 30284, "name": "FENGYUN 1C DEB", "group": "fengyun-1c-debris", "lat": 0.8893209865839965, "lon": -113.56313339090126, "alt_km": 803.9282747267498, "timestamp": "2025-12-23T20:42:37.351083+00:00", "meta": {"OBJECT_NAME": "FENGYUN 1C DEB", "OBJECT_ID": "1999-025YV", "EPOCH": "2025-12-22T16:01:08.633856", "MEAN_MOTION": 14.28825908, "ECCENTRICITY": 0.00370452, "INCLINATION": 98.7195, "RA_OF_ASC_NODE": 65.1055, "ARG_OF_PERICENTER": 80.3503, "MEAN_ANOMALY": 72.459, "EPHEMERIS_TYPE": 0, "CLASSIFICATION_TYPE": "U", "NORAD_CAT_ID": 30284, "ELEMENT_SET_NO": 999, "REV_AT_EPOCH": 97657, "BSTAR": 0.0013342468, "MEAN_MOTION_DOT": 3.345e-05, "MEAN_MOTION_DDOT": 0}, "tle": {"line1": "1 30284U 99025YV  25356.66746104  .00003345  00000+0  13342-2 0  9996", "line2": "2 30284  98.7195  65.1055 0037045  80.3503  72.4590 14.28825908976576"}}, "geometry": {"type": "Point", "coordinates": [-113.56313339090126, 0.8893209865839965]}}, {"type": "Feature", "properties": {"norad_id": 30286, "name": "FENGYUN 1C DEB", "group": "fengyun-1c-debris", "lat": -34.19354234982838, "lon": 7.858638296842487, "alt_km": 889.8728887485704, "timestamp": "2025-12-23T20:42:37.351094+00:00", "meta": {"OBJECT_NAME": "FENGYUN 1C DEB", "OBJECT_ID": "1999-025YX", "EPOCH": "2025-12-22T23:03:01.177920", "MEAN_MOTION": 14.12726986, "ECCENTRICITY": 0.0064979, "INCLINATION": 98.69, "RA_OF_ASC_NODE": 1.0185, "ARG_OF_PERICENTER": 104.0649, "MEAN_ANOMALY": 314.5178, "EPHEMERIS_TYPE": 0, "CLASSIFICATION_TYPE": "U", "NORAD_CAT_ID": 30286, "ELEMENT_SET_NO": 999, "REV_AT_EPOCH": 97603, "BSTAR": 9.5506e-05, "MEAN_MOTION_DOT": 1.39e-06, "MEAN_MOTION_DDOT": 0}, "tle": {"line1": "1 30286U 99025YX  25356.96043030  .00000139  00000+0  95506-4 0  9991", "line2": "2 30286  98.6900   1.0185 0064979 104.0649 314.5178 14.12726986976037"}}, "geometry": {"type": "Point", "coordinates": [7.858638296842487, -34.19354234982838]}}, {"type": "Feature", "properties": {"norad_id": 30287, "name": "FENGYUN 1C DEB", "group": "fengyun-1c-debris", "lat": -32.08208801681979, "lon": -154.5151721413141, "alt_km": 1200.306971930957, "timestamp": "2025-12-23T20:42:37.351104+00:00", "meta": {"OBJECT_NAME": "FENGYUN 1C DEB", "OBJECT_ID": "1999-025YY", "EPOCH": "2025-12-23T02:23:13.369920", "MEAN_MOTION": 13.68619387, "ECCENTRICITY": 0.04128987, "INCLINATION": 98.6363, "RA_OF_ASC_NODE": 30.2656, "ARG_OF_PERICENTER": 344.7528, "MEAN_ANOMALY": 71.6988, "EPHEMERIS_TYPE": 0, "CLASSIFICATION_TYPE": "U", "NORAD_CAT_ID": 30287, "ELEMENT_SET_NO": 999, "REV_AT_EPOCH": 94000, "BSTAR": 0.00093187766, "MEAN_MOTION_DOT": 1.414e-05, "MEAN_MOTION_DDOT": 0}, "tle": {"line1": "1 30287U 99025YY  25357.09946030  .00001414  00000+0  93188-3 0  9999", "line2": "2 30287  98.6363  30.2656 0412898 344.7528  71.6988 13.68619387940008"}}, "geometry": {"type": "Point", "coordinates": [-154.5151721413141, -32.08208801681979]}}, {"type": "Feature", "properties": {"norad_id": 30288, "name": "FENGYUN 1C DEB", "group": "fengyun-1c-debris", "lat": 2.742274878757192, "lon": -99.10637688865309, "alt_km": 790.8012993563507, "timestamp": "2025-12-23T20:42:37.351115+00:00", "meta": {"OBJECT_NAME": "FENGYUN 1C DEB", "OBJECT_ID": "1999-025YZ", "EPOCH": "2025-12-23T05:03:15.018336", "MEAN_MOTION": 14.32674835, "ECCENTRICITY": 0.00215693, "INCLINATION": 99.3945, "RA_OF_ASC_NODE": 79.7328, "ARG_OF_PERICENTER": 289.855, "MEAN_ANOMALY": 124.8123, "EPHEMERIS_TYPE": 0, "CLASSIFICATION_TYPE": "U", "NORAD_CAT_ID": 30288, "ELEMENT_SET_NO": 999, "REV_AT_EPOCH": 97719, "BSTAR": 0.0018635071, "MEAN_MOTION_DOT": 5.033e-05, "MEAN_MOTION_DDOT": 0}, "tle": {"line1": "1 30288U 99025YZ  25357.21059049  .00005033  00000+0  18635-2 0  9993", "line2": "2 30288  99.3945  79.7328 0021569 289.8550 124.8123 14.32674835977195"}}, "geometry": {"type": "Point", "coordinates": [-99.10637688865309, 2.742274878757192]}}, {"type": "Feature", "properties": {"norad_id": 30289, "name": "FENGYUN 1C DEB", "group": "fengyun-1c-debris", "lat": 36.198984904767734, "lon": 87.9516169180621, "alt_km": 807.436457118315, "timestamp": "2025-12-23T20:42:37.351125+00:00", "meta": {"OBJECT_NAME": "FENGYUN 1C DEB", "OBJECT_ID": "1999-025ZA", "EPOCH": "2025-12-21T06:31:36.836832", "MEAN_MOTION": 14.25894066, "ECCENTRICITY": 0.0037823, "INCLINATION": 98.9266, "RA_OF_ASC_NODE": 91.9188, "ARG_OF_PERICENTER": 304.3686, "MEAN_ANOMALY": 119.3509, "EPHEMERIS_TYPE": 0, "CLASSIFICATION_TYPE": "U", "NORAD_CAT_ID": 30289, "ELEMENT_SET_NO": 999, "REV_AT_EPOCH": 97203, "BSTAR": 0.0015072, "MEAN_MOTION_DOT": 3.571e-05, "MEAN_MOTION_DDOT": 0}, "tle": {"line1": "1 30289U 99025ZA  25355.27195413  .00003571  00000+0  15072-2 0  9991", "line2": "2 30289  98.9266  91.9188 0037823 304.3686 119.3509 14.25894066972037"}}, "geometry": {"type": "Point", "coordinates": [87.9516169180621, 36.198984904767734]}}, {"type": "Feature", "properties": {"norad_id": 30290, "name": "FENGYUN 1C DEB", "group": "fengyun-1c-debris", "lat": -44.87027692570704, "lon": 118.7156780964157, "alt_km": 643.9015888145686, "timestamp": "2025-12-23T20:42:37.351135+00:00", "meta": {"OBJECT_NAME": "FENGYUN 1C DEB", "OBJECT_ID": "1999-025ZB", "EPOCH": "2025-12-23T02:10:51.745152", "MEAN_MOTION": 14.75507521, "ECCENTRICITY": 0.00169713, "INCLINATION": 102.6218, "RA_OF_ASC_NODE": 104.6276, "ARG_OF_PERICENTER": 15.6022, "MEAN_ANOMALY": 159.3432, "EPHEMERIS_TYPE": 0, "CLASSIFICATION_TYPE": "U", "NORAD_CAT_ID": 30290, "ELEMENT_SET_NO": 999, "REV_AT_EPOCH": 98031, "BSTAR": 0.0050885144, "MEAN_MOTION_DOT": 0.00034816, "MEAN_MOTION_DDOT": 0}, "tle": {"line1": "1 30290U 99025ZB  25357.09087668  .00034816  00000+0  50885-2 0  9994", "line2": "2 30290 102.6218 104.6276 0016971  15.6022 159.3432 14.75507521980317"}}, "geometry": {"type": "Point", "coordinates": [118.7156780964157, -44.87027692570704]}}, {"type": "Feature", "properties": {"norad_id": 30291, "name": "FENGYUN 1C DEB", "group": "fengyun-1c-debris", "lat": -37.63597349752663, "lon": -109.20946888901723, "alt_km": 641.2962427855655, "timestamp": "2025-12-23T20:42:37.351146+00:00", "meta": {"OBJECT_NAME": "FENGYUN 1C DEB", "OBJECT_ID": "1999-025ZC", "EPOCH": "2025-12-22T15:27:31.292352", "MEAN_MOTION": 14.55467549, "ECCENTRICITY": 0.01109083, "INCLINATION": 97.2326, "RA_OF_ASC_NODE": 244.1145, "ARG_OF_PERICENTER": 348.2135, "MEAN_ANOMALY": 71.9344, "EPHEMERIS_TYPE": 0, "CLASSIFICATION_TYPE": "U", "NORAD_CAT_ID": 30291, "ELEMENT_SET_NO": 999, "REV_AT_EPOCH": 97852, "BSTAR": 0.0029862718, "MEAN_MOTION_DOT": 0.00014094, "MEAN_MOTION_DDOT": 0}, "tle": {"line1": "1 30291U 99025ZC  25356.64411218  .00014094  00000+0  29863-2 0  9995", "line2": "2 30291  97.2326 244.1145 0110908 348.2135  71.9344 14.55467549978521"}}, "geometry": {"type": "Point", "coordinates": [-109.20946888901723, -37.63597349752663]}}, {"type": "Feature", "properties": {"norad_id": 30293, "name": "FENGYUN 1C DEB", "group": "fengyun-1c-debris", "lat": -35.54192288295422, "lon": -163.45540439767854, "alt_km": 760.2615327770154, "timestamp": "2025-12-23T20:42:37.351156+00:00", "meta": {"OBJECT_NAME": "FENGYUN 1C DEB", "OBJECT_ID": "1999-025ZE", "EPOCH": "2025-12-22T07:34:11.043840", "MEAN_MOTION": 14.48994825, "ECCENTRICITY": 0.00768146, "INCLINATION": 99.2543, "RA_OF_ASC_NODE": 188.1602, "ARG_OF_PERICENTER": 86.3876, "MEAN_ANOMALY": 90.4938, "EPHEMERIS_TYPE": 0, "CLASSIFICATION_TYPE": "U", "NORAD_CAT_ID": 30293, "ELEMENT_SET_NO": 999, "REV_AT_EPOCH": 99115, "BSTAR": 0.00070350026, "MEAN_MOTION_DOT": 2.715e-05, "MEAN_MOTION_DDOT": 0}, "tle": {"line1": "1 30293U 99025ZE  25356.31540560  .00002715  00000+0  70350-3 0  9999", "line2": "2 30293  99.2543 188.1602 0076814  86.3876  90.4938 14.48994825991153"}}, "geometry": {"type": "Point", "coordinates": [-163.45540439767854, -35.54192288295422]}}, {"type": "Feature", "properties": {"norad_id": 30294, "name": "FENGYUN 1C DEB", "group": "fengyun-1c-debris", "lat": 46.161033779594675, "lon": -23.04799913988188, "alt_km": 861.1323109392597, "timestamp": "2025-12-23T20:42:37.351166+00:00", "meta": {"OBJECT_NAME": "FENGYUN 1C DEB", "OBJECT_ID": "1999-025ZF", "EPOCH": "2025-12-23T05:30:35.248032", "MEAN_MOTION": 14.349776, "ECCENTRICITY": 0.01971414, "INCLINATION": 98.3568, "RA_OF_ASC_NODE": 345.1436, "ARG_OF_PERICENTER": 278.232, "MEAN_ANOMALY": 96.929, "EPHEMERIS_TYPE": 0, "CLASSIFICATION_TYPE": "U", "NORAD_CAT_ID": 30294, "ELEMENT_SET_NO": 999, "REV_AT_EPOCH": 98687, "BSTAR": 0.00031529316, "MEAN_MOTION_DOT": 1.067e-05, "MEAN_MOTION_DDOT": 0}, "tle": {"line1": "1 30294U 99025ZF  25357.22957463  .00001067  00000+0  31529-3 0  9999", "line2": "2 30294  98.3568 345.1436 0197141 278.2320  96.9290 14.34977600986876"}}, "geometry": {"type": "Point", "coordinates": [-23.04799913988188, 46.161033779594675]}}]}